0175P         2026 09  2.9912  2.304042  0.375877   74.6524  109.8123    4.9280  20250704  14.0  4.0  175P/Hergenrother                                        MPC114608
0176P         2022 11 19.7924  2.582475  0.191810   34.4730  345.6301    0.2312  20250704  15.1  2.0  176P/LINEAR                                              MPC 89015
0177P         2006 08 29.8368  1.122283  0.954210   60.7638  271.8601   31.0053  20250704  15.0  4.0  177P/Barnard                                             MPEC 2020-L06
0178P         2027 06 21.4076  1.880797  0.482273  297.9628  102.7845   11.0926  20250704  13.5  4.0  178P/Hug-Bell                                            MPEC 2024-R10
0179P         2022 05 31.8329  4.123946  0.305397  297.2174  115.5079   19.8899  20250704   2.5  8.0  179P/Jedicke                                             MPEC 2024-EF7
0180P         2023 07 12.1454  2.499164  0.353846   94.6023   84.5587   16.8618  20250704  11.0  4.0  180P/NEAT                                                MPEC 2024-F34
0181P         2022 01  8.2492  1.164643  0.699773  336.2919   35.4415   17.4739  20250704  11.5  4.0  181P/Shoemaker-Levy                                      MPC 89012
0182P         2027 06  5.3732  0.990915  0.663950   54.2100   72.4538   16.2308  20250704  18.0  4.0  182P/LONEOS                                              MPEC 2024-UQ8
0183P         2027 09 15.3577  4.225582  0.102699  162.5946    3.5239   18.7253  20250704  12.5  2.0  183P/Korlevic-Juric                                      MPEC 2024-VJ2
0184P         2028 03 23.8336  1.711222  0.549782  186.5607  173.2671    4.5699  20250704  13.5  4.0  184P/Lovas                                               MPEC 2020-W26
0185P         2023 07 12.7829  0.931790  0.699397  181.9207  214.1228   14.0095  20250704  15.0  4.0  185P/Petriew                                             MPEC 2024-F91
0186P         2029 08 24.5729  4.255412  0.123762  268.4439  325.8680   28.6596  20250704   7.5  4.0  186P/Garradd                                             MPEC 2022-X67
0187P         2028 02  4.2104  3.839204  0.156184  131.6905  109.8457   13.6679  20250704   9.0  4.0  187P/LINEAR                                              MPEC 2020-SI8
0188P         2026 04 13.2751  2.546183  0.416689   26.8312  358.9133   10.5249  20250704  11.5  4.0  188P/LINEAR-Mueller                                      MPEC 2025-MC0
0189P         2027 09 13.4489  1.203020  0.590765   16.1825  281.6856   20.1209  20250704  19.0  4.0  189P/NEAT                                                MPEC 2022-QD9
0190P         2024 12 24.1577  2.019321  0.522754   50.5555  335.4680    2.1748  20250704  13.0  4.0  190P/Mueller                                             MPC182889
0191P         2028 02 29.6799  2.238772  0.385111  284.2680   98.1787    8.8395  20250704  13.0  4.0  191P/McNaught                                            MPEC 2024-TD8
0192P         2024 05 24.5009  1.462623  0.773386  313.0363   51.5756   24.5792  20250704  15.0  4.0  192P/Shoemaker-Levy                                      MPC182889
0193P         2028 06  1.4375  2.174275  0.392591    8.1145  335.1857   10.6789  20250704  14.0  4.0  193P/LINEAR-NEAT                                         MPEC 2024-R10
0194P         2024 02  4.3256  1.800065  0.563397  128.6209  349.5100   11.8034  20250704  16.0  4.0  194P/LINEAR                                              MPEC 2024-GJ3
0195P         2025 08  5.6876  4.440554  0.310855  250.6099  243.0968   36.4163  20250704   8.5  4.0  195P/Hill                                                MPEC 2025-MC0
0196P         2022 10 29.1628  2.179100  0.427506   12.1386   24.1245   19.2946  20250704  13.5  4.0  196P/Tichy                                               MPEC 2024-GJ3
0197P         2027 11 20.9421  1.108391  0.618901  189.9578   66.1913   25.2995  20250704  16.5  2.0  197P/LINEAR                                              MPEC 2023-UR6
0198P         2025 10  7.1103  1.994792  0.444686   69.0495  358.4688    1.3400  20250704  12.5  4.0  198P/ODAS                                                MPEC 2024-VJ2
0199P         2023 08  7.3319  2.910989  0.504383  191.7627   92.3436   24.9393  20250704  10.0  4.0  199P/Shoemaker                                           MPEC 2024-Q20
0200P         2030 08  6.3435  3.313208  0.331129  134.3839  234.8108   12.0950  20250704   9.0  4.0  200P/Larsen                                              MPEC 2022-C56
0201P         2027 07 20.1434  1.216036  0.637505   19.8042   41.5242    5.7369  20250704  14.0  4.0  201P/LONEOS                                              MPC 93588
0202P         2024 05 17.2913  3.069977  0.251062  274.4968  177.3004    2.1418  20250704  13.5  4.0  202P/Scotti                                              MPC182889
0203P         2030 04  8.8812  3.191416  0.316387  154.9398  290.2213    2.9760  20250704  14.5  2.0  203P/Korlevic                                            MPEC 2025-A40
0204P         2022 11 17.2977  1.834069  0.488292  356.7299  108.4731    6.5980  20250704  14.0  4.0  204P/LINEAR-NEAT                                         MPEC 2024-JU4
0205P         2028 09 13.5567  1.533544  0.567180  154.1526  179.6236   15.3003  20250704  13.0  4.0  205P/Giacobini                                           MPEC 2023_O39
0206P         2027 09 13.0061  1.567234  0.551123  189.5773  202.3409   33.6168  20250704  19.0  4.0  206P/Barnard-Boattini                                    MPC 75725
0207P         2024 01 31.8744  0.938409  0.758528  273.0301  198.1370   10.1985  20250704  16.0  4.0  207P/NEAT                                                MPEC 2024-NE4
0208P         2024 08 24.2828  2.529366  0.374178  310.7869   36.3302    4.4108  20250704  12.5  4.0  208P/McMillan                                            MPC182889
0209P         2024 07 14.4916  0.964145  0.674032  152.4806   62.7640   21.2829  20250704  17.0  2.0  209P/LINEAR                                              MPEC 2024-TD8
0210P         2025 11 22.7192  0.524444  0.834072  345.9176   93.8249   10.2819  20250704  13.5  4.0  210P/Christensen                                         MPC105242
0211P         2022 10  5.1877  2.326317  0.344494    4.3518  117.1007   18.9249  20250704  12.5  4.0  211P/Hill                                                MPEC 2024-JU4
0212P         2024 04 25.1531  1.612922  0.586758   14.0620   97.9717   22.1491  20250704  17.0  2.0  212P/NEAT                                                MPEC 2024-GJ3
0213P         2023 11 13.6463  1.981395  0.409875    6.5683  310.8808   10.4355  20250704  10.5  4.0  213P/VanNess                                             MPC184418
0213P      b  2023 11 13.5153  1.981746  0.409749    6.5874  310.8773   10.4348  20250704  17.0  4.0  213P-B/Van Ness                                          MPEC 2025-GB9
0213P      c  2023 11 12.5762  1.980779  0.409699  312.1927    5.1779   10.3501  20250704  17.5  4.0  213P-C/Van Ness                                          MPC 76570
0214P         2022 09 26.3906  1.857820  0.486287  190.1199  348.2118   15.1930  20250704  13.0  4.0  214P/LINEAR                                              MPC 92986
0215P         2028 11 24.2578  3.620793  0.164925  262.2424   56.6782   10.5763  20250704  11.0  4.0  215P/NEAT                                                MPC184418
0216P         2024 01  6.9991  2.126944  0.449022  151.7712  359.7802    9.0616  20250704  13.0  4.0  216P/LINEAR                                              MPEC 2024-N80
0217P         2025 05 24.9453  1.226376  0.689095  247.0372  125.3712   12.8655  20250704  12.0  4.0  217P/LINEAR                                              MPEC 2025-MC0
0218P         2026 03  3.8753  1.129821  0.630911   61.4250  174.6730    2.7266  20250704  16.0  4.0  218P/LINEAR                                              MPEC 2022-K19
0219P         2024 02 15.2853  2.355726  0.355968  108.0129  230.8765   11.5112  20250704  11.0  4.0  219P/LINEAR                                              MPC182889
0220P         2026 06 14.1436  1.558941  0.500389  180.5824  150.0908    8.1208  20250704  15.0  4.0  220P/McNaught                                            MPEC 2024-A43
0221P         2028 04  1.8321  1.617091  0.522277   42.0290  226.4338   10.8201  20250704  14.5  4.0  221P/LINEAR                                              MPEC 2022-UY9
0222P         2024 05 12.8881  0.825934  0.714818  346.2739    6.7525    5.0975  20250704  20.0  4.0  222P/LINEAR                                              MPC 92277
0223P         2027 07 24.7745  2.427427  0.416240   37.9836  346.7040   27.0059  20250704  12.0  4.0  223P/Skiff                                               MPEC 2023-A50
0224P         2022 09 30.1474  2.049197  0.405551   16.8159   40.0412   13.3012  20250704  15.5  4.0  224P/LINEAR-NEAT                                         MPEC 2024-L77
0225P         2023 08  7.8450  1.319841  0.638147    3.9062   14.2110   21.3611  20250704  18.0  4.0  225P/LINEAR                                              MPEC 2024-F91
0226P         2023 12 27.0565  1.774035  0.528848  341.0328   54.0134   44.0448  20250704  12.5  4.0  226P/Pigott-LINEAR-Kowalski                              MPEC 2024-MB8
0227P         2024 03  8.3297  1.623582  0.527709  105.5946   36.8014    7.5072  20250704  16.5  2.0  227P/Catalina-LINEAR                                     MPEC 2024-R10
0228P         2028 09  5.1179  3.423626  0.177427  114.8048   30.9543    7.9158  20250704  14.1  4.0  228P/LINEAR                                              MPEC 2022-HC2
0229P         2025 03  5.8170  2.440411  0.378057  224.2295  157.8789   26.0963  20250704  13.0  4.0  229P/Gibbs                                               MPC182889
0230P         2028 08 20.5007  1.570550  0.545441  313.5821  106.9263   15.4722  20250704  13.0  4.0  230P/LINEAR                                              MPEC 2025-MC0
